[{"OBJECT_NAME":"STARLINK-3565","OBJECT_ID":"2022-022AL","EPOCH":"2026-03-09T02:34:47.129952","MEAN_MOTION":15.08833739,"ECCENTRICITY":0.00014367,"INCLINATION":53.2191,"RA_OF_ASC_NODE":1.7334,"ARG_OF_PERICENTER":89.0642,"MEAN_ANOMALY":271.0515,"EPHEMERIS_TYPE":0,"CLASSIFICATION_TYPE":"U","NORAD_CAT_ID":51886,"ELEMENT_SET_NO":999,"REV_AT_EPOCH":22316,"BSTAR":-0.00010750613,"MEAN_MOTION_DOT":-1.998e-5,"MEAN_MOTION_DDOT":0},{"OBJECT_NAME":"SL-8 DEB","OBJECT_ID":"1986-052E","EPOCH":"2026-03-08T09:24:38.203776","MEAN_MOTION":15.11223117,"ECCENTRICITY":0.00100672,"INCLINATION":74.0059,"RA_OF_ASC_NODE":66.8929,"ARG_OF_PERICENTER":314.4934,"MEAN_ANOMALY":45.5435,"EPHEMERIS_TYPE":0,"CLASSIFICATION_TYPE":"U","NORAD_CAT_ID":16867,"ELEMENT_SET_NO":999,"REV_AT_EPOCH":11371,"BSTAR":0.0018795551,"MEAN_MOTION_DOT":0.0003173,"MEAN_MOTION_DDOT":0}]
